{"type":"FeatureCollection","features":[{"type":"Feature","geometry":{"type":"Point","coordinates":[-71.086678,42.348362]},"properties":{"label":"Trident Booksellers and Cafe - 338 Newbury St, Boston, Massachusetts 02115, United States","":""}},{"type":"Feature","geometry":{"type":"Point","coordinates":[-71.082775,42.349628]},"properties":{"label":"Amorino Gelato - 249 Newbury St, Boston, Massachusetts 02116, United States"}},{"type":"Feature","geometry":{"type":"Point","coordinates":[-71.081231,42.349696]},"properties":{"label":"Piattini - 226 Newbury St, Boston, Massachusetts 02116, United States"}},{"type":"Feature","geometry":{"type":"Point","coordinates":[-71.083153,42.349503]},"properties":{"label":"La Voile - 261 Newbury St, Boston, Massachusetts 02116, United States"}},{"type":"Feature","geometry":{"type":"Point","coordinates":[-71.079702,42.350438]},"properties":{"label":"Joe's on Newbury - 181 Newbury St, Boston, Massachusetts 02116, United States"}},{"type":"Feature","geometry":{"type":"Point","coordinates":[-71.077721,42.351223]},"properties":{"label":"Saltie Girl - 279 Dartmouth St, Boston, Massachusetts 02116, United States"}},{"type":"Feature","geometry":{"type":"Point","coordinates":[-71.074825,42.351667]},"properties":{"label":"Thinking Cup - 85 Newbury St, Boston, Massachusetts 02116, United States"}},{"type":"Feature","geometry":{"type":"Point","coordinates":[-71.071579,42.352749]},"properties":{"label":"Contessa Boston - Rooftop, Boston, Massachusetts 02116, United States"}},{"type":"Feature","geometry":{"type":"Point","coordinates":[-71.08334,42.34912]},"properties":{"label":"Gong Cha Newbury - 270 Newbury St, Boston, Massachusetts 02116, United States"}},{"type":"Feature","geometry":{"type":"Point","coordinates":[-71.08327,42.34914]},"properties":{"label":"Crazy Good Kitchen - 268 Newbury St, Boston, Massachusetts 02116, United States"}},{"type":"Feature","geometry":{"type":"Point","coordinates":[-71.081231,42.3503]},"properties":{"label":"Umai - 224 Newbury St, Boston, Massachusetts 02116, United States"}},{"type":"Feature","geometry":{"type":"Point","coordinates":[-71.076754,42.351059]},"properties":{"label":"Thai Basil - 132 Newbury St Ste B, Boston, Massachusetts 02116, United States"}}]}