{
    "type": "FeatureCollection",
    "features": [
        {
            "type": "Feature",
            "properties": {
                "label": "Central Park Entry"
            },
            "geometry": {
                "type": "Point",
                "coordinates": [
                    -73.976235,
                    40.765703
                ]
            }
        },
        {
            "type": "Feature",
            "geometry": {
                "type": "Point",
                "coordinates": [
                    -73.971473,
                    40.767722
                ]
            },
            "properties": {
                "label": "Central Park Zoo - 830 5th Avenue, New York, New York 10023, United States"
            }
        },
        {
            "type": "Feature",
            "properties": {
                "label": "Bethesda Terrace & Fountain"
            },
            "geometry": {
                "type": "Point",
                "coordinates": [
                    -73.970896,
                    40.774128
                ]
            }
        },
        {
            "type": "Feature",
            "properties": {
                "label": "Bow Bridge"
            },
            "geometry": {
                "type": "Point",
                "coordinates": [
                    -73.971774,
                    40.775769
                ]
            }
        },
        {
            "type": "Feature",
            "properties": {
                "label": "Belvedere Castle"
            },
            "geometry": {
                "type": "Point",
                "coordinates": [
                    -73.968902,
                    40.779302
                ]
            }
        },
        {
            "type": "Feature",
            "properties": {
                "label": "The Great Lawn"
            },
            "geometry": {
                "type": "Point",
                "coordinates": [
                    -73.967871,
                    40.780434
                ]
            }
        },
        {
            "type": "Feature",
            "properties": {
                "label": "Strawberry Fields"
            },
            "geometry": {
                "type": "Point",
                "coordinates": [
                    -73.975232,
                    40.775886
                ]
            }
        },
        {
            "type": "Feature",
            "properties": {
                "label": "The Mall and Literary Walk"
            },
            "geometry": {
                "type": "Point",
                "coordinates": [
                    -73.971884,
                    40.771608
                ]
            }
        },
        {
            "type": "Feature",
            "properties": {
                "label": "Sheep Meadow"
            },
            "geometry": {
                "type": "Point",
                "coordinates": [
                    -73.975959,
                    40.770936
                ]
            }
        },
        {
            "type": "Feature",
            "properties": {
                "label": "Conservatory Water"
            },
            "geometry": {
                "type": "Point",
                "coordinates": [
                    -73.967569,
                    40.774386
                ]
            }
        },
        {
            "type": "Feature",
            "properties": {
                "label": "Conservatory Garden"
            },
            "geometry": {
                "type": "Point",
                "coordinates": [
                    -73.95274,
                    40.793879
                ]
            }
        },
        {
            "type": "Feature",
            "properties": {
                "label": "Harlem Meer"
            },
            "geometry": {
                "type": "Point",
                "coordinates": [
                    -73.952202,
                    40.796882
                ]
            }
        },
        {
            "type": "Feature",
            "properties": {
                "label": "The Reservoir"
            },
            "geometry": {
                "type": "Point",
                "coordinates": [
                    -73.959286,
                    40.784421
                ]
            }
        },
        {
            "type": "Feature",
            "properties": {
                "label": "The Ramble"
            },
            "geometry": {
                "type": "Point",
                "coordinates": [
                    -73.969995,
                    40.777089
                ]
            }
        },
        {
            "type": "Feature",
            "properties": {
                "label": "Shakespeare Garden"
            },
            "geometry": {
                "type": "Point",
                "coordinates": [
                    -73.969824,
                    40.779875
                ]
            }
        },
        {
            "type": "Feature",
            "properties": {
                "label": "Gapstow Bridge"
            },
            "geometry": {
                "type": "Point",
                "coordinates": [
                    -73.973835,
                    40.766925
                ]
            }
        },
        {
            "type": "Feature",
            "properties": {
                "label": "Dairy Visitor Center"
            },
            "geometry": {
                "type": "Point",
                "coordinates": [
                    -73.973743,
                    40.769066
                ]
            }
        }
        
    ]
}