{
    "type": "FeatureCollection",
    "features": [
        {
            "type": "Feature",
            "properties": {},
            "geometry": {
                "type": "LineString",
                "coordinates": [
                    [
                        -73.957846,
                        40.800533
                    ],
                    [
                        -73.949728,
                        40.797119
                    ],
                    [
                        -73.949663,
                        40.79705
                    ],
                    [
                        -73.949627,
                        40.796948
                    ],
                    [
                        -73.949627,
                        40.796842
                    ],
                    [
                        -73.949604,
                        40.796763
                    ],
                    [
                        -73.949542,
                        40.796703
                    ],
                    [
                        -73.949381,
                        40.796636
                    ],
                    [
                        -73.972585,
                        40.764915
                    ],
                    [
                        -73.972941,
                        40.765078
                    ],
                    [
                        -73.973025,
                        40.765092
                    ],
                    [
                        -73.973102,
                        40.76509
                    ],
                    [
                        -73.973194,
                        40.765062
                    ],
                    [
                        -73.973268,
                        40.765019
                    ],
                    [
                        -73.973328,
                        40.764951
                    ],
                    [
                        -73.973626,
                        40.764571
                    ],
                    [
                        -73.973657,
                        40.764545
                    ],
                    [
                        -73.981452,
                        40.767766
                    ],
                    [
                        -73.981685,
                        40.767968
                    ],
                    [
                        -73.981752,
                        40.768296
                    ],
                    [
                        -73.981585,
                        40.7686
                    ],
                    [
                        -73.960481,
                        40.79755
                    ],
                    [
                        -73.958342,
                        40.800437
                    ],
                    [
                        -73.958185,
                        40.800397
                    ],
                    [
                        -73.95801,
                        40.800437
                    ],
                    [
                        -73.957853,
                        40.800542
                    ]
                ]
            }
        }
    ]
}